[{"OBJECT_NAME":"STARLINK-30080","OBJECT_ID":"2023-067T","EPOCH":"2026-03-08T23:23:04.660800","MEAN_MOTION":15.01721703,"ECCENTRICITY":8.544e-5,"INCLINATION":42.9996,"RA_OF_ASC_NODE":265.3146,"ARG_OF_PERICENTER":262.4975,"MEAN_ANOMALY":97.577,"EPHEMERIS_TYPE":0,"CLASSIFICATION_TYPE":"U","NORAD_CAT_ID":56705,"ELEMENT_SET_NO":999,"REV_AT_EPOCH":15570,"BSTAR":2.3786545e-5,"MEAN_MOTION_DOT":1.13e-6,"MEAN_MOTION_DDOT":0},{"OBJECT_NAME":"CZ-2C DEB","OBJECT_ID":"2014-066E","EPOCH":"2026-03-09T21:55:34.712544","MEAN_MOTION":14.96320405,"ECCENTRICITY":0.00459749,"INCLINATION":97.9301,"RA_OF_ASC_NODE":44.7594,"ARG_OF_PERICENTER":158.4857,"MEAN_ANOMALY":201.831,"EPHEMERIS_TYPE":0,"CLASSIFICATION_TYPE":"U","NORAD_CAT_ID":40290,"ELEMENT_SET_NO":999,"REV_AT_EPOCH":60512,"BSTAR":0.0018751551,"MEAN_MOTION_DOT":0.00021654,"MEAN_MOTION_DDOT":0}]
